     3.04           NAVIGATION DATA     G                   RINEX VERSION / TYPE
RTKCONV 2.4.3 b33                       20201205 000508 UTC PGM / RUN BY / DATE 
gfzrnx-1.13-7761    FILE PROCESSING     20201205 004447 UTC COMMENT             
log: D:\Personal\Google Drive\Faculdade\5º Ano\2º Semestre  COMMENT             
format: RINEX                                               COMMENT             
GPSA   1.2107E-08  0.0000E+00 -1.1921E-07  0.0000E+00       IONOSPHERIC CORR    
GPSB   9.4208E+04  0.0000E+00 -1.9661E+05  0.0000E+00       IONOSPHERIC CORR    
GPUT -9.3132257462E-10 2.664535259E-15 233472 2129          TIME SYSTEM CORR    
    18                                                      LEAP SECONDS        
                                                            END OF HEADER
G10 2020 10 25 04 00 00 -.488112680614e-03 -.932232069317e-11  .000000000000e+00
      .600000000000e+02 -.733750000000e+02  .428875007223e-08  .294807366904e+01
     -.379979610443e-05  .605484715197e-02  .666081905365e-05  .515367079544e+04
      .144000000000e+05 -.372529029846e-07  .135746298145e+01 -.633299350738e-07
      .966660360918e+00  .254250000000e+03 -.266300966571e+01 -.792283001767e-08
     -.528593446610e-10  .100000000000e+01  .212900000000e+04  .000000000000e+00
      .200000000000e+01  .000000000000e+00  .232830643654e-08  .600000000000e+02
      .721800000000e+04  .400000000000e+01 0.000000000000e+00 0.000000000000e+00
G11 2020 10 25 04 00 00 -.127507839352e-03  .105728759081e-10  .000000000000e+00
      .680000000000e+02  .558125000000e+02  .551380110052e-08 -.189561044321e+01
      .303797423840e-05  .157359965378e-01  .525452196598e-05  .515372920799e+04
      .144000000000e+05 -.160187482834e-06 -.163099300072e+00  .335276126862e-06
      .913944012842e+00  .255375000000e+03  .206026023457e+01 -.866000358105e-08
      .778603860548e-10  .100000000000e+01  .212900000000e+04  .000000000000e+00
      .200000000000e+01  .000000000000e+00 -.125728547573e-07  .680000000000e+02
      .721800000000e+04  .400000000000e+01 0.000000000000e+00 0.000000000000e+00
G17 2020 10 25 04 00 00  .344573520124e-03  .534328137292e-11  .000000000000e+00
      .680000000000e+02  .500625000000e+02  .398052294762e-08  .689311881155e+00
      .260584056377e-05  .135696799262e-01  .913999974728e-05  .515378011894e+04
      .144000000000e+05 -.163912773132e-06 -.675322791391e+00 -.391155481338e-07
      .983516784748e+00  .219812500000e+03 -.162864397707e+01 -.806140721854e-08
     -.807176479283e-10  .100000000000e+01  .212900000000e+04  .000000000000e+00
      .200000000000e+01  .000000000000e+00 -.111758708954e-07  .680000000000e+02
      .910800000000e+04  .400000000000e+01 0.000000000000e+00 0.000000000000e+00
G19 2020 10 25 04 00 00 -.872882083058e-04  .500222085975e-11  .000000000000e+00
      .990000000000e+02  .576562500000e+02  .393087802256e-08 -.297931346539e+01
      .302121043205e-05  .908552261535e-02  .869669020176e-05  .515360539627e+04
      .144000000000e+05  .169500708580e-06 -.629926363122e+00  .111758708954e-06
      .981873806322e+00  .220687500000e+03  .173894627693e+01 -.770853537715e-08
      .307155651409e-10  .100000000000e+01  .212900000000e+04  .000000000000e+00
      .200000000000e+01  .000000000000e+00 -.153668224812e-07  .990000000000e+02
      .116220000000e+05  .400000000000e+01 0.000000000000e+00 0.000000000000e+00
G21 2020 10 25 04 00 00  .612949952483e-04  .397903932026e-11  .000000000000e+00
      .460000000000e+02  .350000000000e+01  .476055543910e-08  .139657785015e+01
     -.480562448502e-06  .238461698173e-01  .390224158764e-05  .515500387382e+04
      .144000000000e+05  .357627868652e-06  .243078712358e+00 -.543892383575e-06
      .955094536435e+00  .296562500000e+03 -.127360954997e+01 -.830998900154e-08
      .600024993449e-10  .100000000000e+01  .212900000000e+04  .000000000000e+00
      .200000000000e+01  .000000000000e+00 -.102445483208e-07  .460000000000e+02
      .721800000000e+04  .400000000000e+01 0.000000000000e+00 0.000000000000e+00
G27 2020 10 25 04 00 00 -.426121987402e-03 -.852651282912e-11  .000000000000e+00
      .110000000000e+02  .411875000000e+02  .414838708269e-08  .836749500650e+00
      .232644379139e-05  .845339347143e-02  .794231891632e-05  .515367634964e+04
      .144000000000e+05 -.130385160446e-07 -.734666276862e+00  .104308128357e-06
      .977474976968e+00  .233906250000e+03  .570591974075e+00 -.797997525514e-08
     -.171792870148e-09  .100000000000e+01  .212900000000e+04  .000000000000e+00
      .200000000000e+01  .000000000000e+00  .186264514923e-08  .110000000000e+02
      .721800000000e+04  .400000000000e+01 0.000000000000e+00 0.000000000000e+00
G31 2020 10 25 04 00 00 -.771284103394e-04 -.238742359215e-11  .000000000000e+00
      .220000000000e+02  .359375000000e+02  .488663211927e-08 -.238031804297e+01
      .168196856976e-05  .980384659488e-02  .687129795551e-05  .515367749596e+04
      .144000000000e+05 -.102445483208e-06 -.280277929622e+01 -.219792127609e-06
      .957183257222e+00  .249125000000e+03  .182239173713e+00 -.812605276843e-08
      .195722438340e-09  .100000000000e+01  .212900000000e+04  .000000000000e+00
      .200000000000e+01  .000000000000e+00 -.130385160446e-07  .220000000000e+02
      .721800000000e+04  .400000000000e+01 0.000000000000e+00 0.000000000000e+00
G01 2020 10 25 06 00 00  .813312828541e-03 -.272848410532e-11  .000000000000e+00
      .179000000000e+03  .415625000000e+01  .431017953628e-08 -.296955021346e+00
      .290572643280e-06  .100918792887e-01  .441260635853e-05  .515369626617e+04
      .216000000000e+05  .260770320892e-07  .320951309025e+00  .102445483208e-06
      .982132162044e+00  .303187500000e+03  .829185788471e+00 -.824962934446e-08
      .575023952056e-10  .100000000000e+01  .212900000000e+04  .000000000000e+00
      .200000000000e+01  .000000000000e+00  .512227416039e-08  .179000000000e+03
      .144180000000e+05  .400000000000e+01 0.000000000000e+00 0.000000000000e+00
G02 2020 10 25 06 00 00 -.533998943865e-03 -.488853402203e-11  .000000000000e+00
      .290000000000e+02  .243750000000e+02  .483877298289e-08 -.956250709852e-01
      .131130218506e-05  .199534517014e-01  .457651913166e-05  .515353893280e+04
      .216000000000e+05 -.324100255966e-06  .241603973901e+00  .577419996262e-07
      .961038355036e+00  .296218750000e+03 -.159120462794e+01 -.873857828258e-08
      .146077513286e-09  .100000000000e+01  .212900000000e+04  .000000000000e+00
      .200000000000e+01  .000000000000e+00 -.176951289177e-07  .290000000000e+02
      .215160000000e+05  .400000000000e+01 0.000000000000e+00 0.000000000000e+00
G03 2020 10 25 06 00 00 -.335494987667e-03 -.102318153950e-10  .000000000000e+00
      .890000000000e+02 -.731875000000e+02  .441875548747e-08 -.148567289370e+01
     -.385381281376e-05  .325848895591e-02  .681728124618e-05  .515372288895e+04
      .216000000000e+05  .912696123123e-07  .136038484725e+01  .000000000000e+00
      .966739576470e+00  .252406250000e+03  .898162460757e+00 -.802926302246e-08
     -.188222125921e-09  .100000000000e+01  .212900000000e+04  .000000000000e+00
      .200000000000e+01  .000000000000e+00  .186264514923e-08  .890000000000e+02
      .144180000000e+05  .400000000000e+01 0.000000000000e+00 0.000000000000e+00
G04 2020 10 25 06 00 00 -.148723833263e-03 -.386535248254e-11  .000000000000e+00
      .164000000000e+03 -.937500000000e+01  .433268047353e-08  .131226525988e+01
     -.443309545517e-06  .875075347722e-03  .104010105133e-04  .515362179756e+04
      .216000000000e+05 -.109896063805e-06  .244028839615e+01  .465661287308e-07
      .960302716440e+00  .178875000000e+03 -.298471688937e+01 -.783246911092e-08
      .203579908492e-09  .100000000000e+01  .212900000000e+04  .000000000000e+00
      .200000000000e+01  .000000000000e+00 -.419095158577e-08  .164000000000e+03
      .144180000000e+05  .400000000000e+01 0.000000000000e+00 0.000000000000e+00
G06 2020 10 25 06 00 00 -.335232820362e-03 -.216004991671e-11  .000000000000e+00
      .230000000000e+02  .123437500000e+02  .422589031101e-08  .117451258671e+00
      .679865479469e-06  .189024093561e-02  .447407364845e-05  .515363909531e+04
      .216000000000e+05 -.502914190292e-07  .312703145753e+00 -.186264514923e-07
      .981656877515e+00  .306406250000e+03 -.115864316591e+01 -.814676791701e-08
      .939324840936e-10  .100000000000e+01  .212900000000e+04  .000000000000e+00
      .200000000000e+01  .000000000000e+00  .419095158577e-08  .230000000000e+02
      .151080000000e+05  .400000000000e+01 0.000000000000e+00 0.000000000000e+00
G07 2020 10 25 06 00 00 -.400510150939e-03 -.784439180279e-11  .000000000000e+00
      .440000000000e+02  .374375000000e+02  .493163399378e-08 -.974320976791e+00
      .220723450184e-05  .142192909261e-01  .623054802418e-05  .515363023567e+04
      .216000000000e+05  .264495611191e-06 -.281900976959e+01  .232830643654e-06
      .952806958269e+00  .252500000000e+03 -.236160677799e+01 -.829427406124e-08
      .175007289756e-09  .100000000000e+01  .212900000000e+04  .000000000000e+00
      .200000000000e+01  .000000000000e+00 -.111758708954e-07  .440000000000e+02
      .172080000000e+05  .400000000000e+01 0.000000000000e+00 0.000000000000e+00
G09 2020 10 25 06 00 00 -.304759945720e-03 -.511590769747e-11  .000000000000e+00
      .830000000000e+02 -.143125000000e+02  .444197074020e-08  .231084266337e+01
     -.705942511558e-06  .191337626893e-02  .105481594801e-04  .515363505554e+04
      .216000000000e+05  .745058059692e-08  .239118746285e+01  .912696123123e-07
      .953043520900e+00  .170812500000e+03  .176018125553e+01 -.788997150613e-08
      .228938107620e-09  .100000000000e+01  .212900000000e+04  .000000000000e+00
      .200000000000e+01  .000000000000e+00  .139698386192e-08  .830000000000e+02
      .144180000000e+05  .400000000000e+01 0.000000000000e+00 0.000000000000e+00
